{"type": "FeatureCollection", "features": [ {"type": "Feature", "properties": {"norad_id": 31038, "name": "FENGYUN 1C DEB", "group": "fengyun-1c-debris", "lat": 80.92711814709565, "lon": -4.274637469175948, "alt_km": 756.7131211897122, "timestamp": "2025-12-20T22:39:10.906071+00:00", "meta": {"OBJECT_NAME": "FENGYUN 1C DEB", "OBJECT_ID": "1999-025BEG", "EPOCH": "2025-12-17T16:10:31.099584", "MEAN_MOTION": 14.45844316, "ECCENTRICITY": 0.0084304, "INCLINATION": 99.014, "RA_OF_ASC_NODE": 75.9992, "ARG_OF_PERICENTER": 213.7595, "MEAN_ANOMALY": 145.821, "EPHEMERIS_TYPE": 0, "CLASSIFICATION_TYPE": "U", "NORAD_CAT_ID": 31038, "ELEMENT_SET_NO": 999, "REV_AT_EPOCH": 98306, "BSTAR": 0.00045261885, "MEAN_MOTION_DOT": 1.626e-05, "MEAN_MOTION_DDOT": 0}, "tle": {"line1": "1 31038U 99025BEG 25351.67397106  .00001626  00000+0  45262-3 0  9991", "line2": "2 31038  99.0140  75.9992 0084304 213.7595 145.8210 14.45844316983069"}}, "geometry": {"type": "Point", "coordinates": [-4.274637469175948, 80.92711814709565]}}, {"type": "Feature", "properties": {"norad_id": 31040, "name": "FENGYUN 1C DEB", "group": "fengyun-1c-debris", "lat": -4.498974052486489, "lon": -14.728773567662335, "alt_km": 881.6424701837577, "timestamp": "2025-12-20T22:39:10.906080+00:00", "meta": {"OBJECT_NAME": "FENGYUN 1C DEB", "OBJECT_ID": "1999-025BEJ", "EPOCH": "2025-12-18T10:26:06.254304", "MEAN_MOTION": 14.17678932, "ECCENTRICITY": 0.00625828, "INCLINATION": 98.6582, "RA_OF_ASC_NODE": 342.1389, "ARG_OF_PERICENTER": 177.6674, "MEAN_ANOMALY": 339.7033, "EPHEMERIS_TYPE": 0, "CLASSIFICATION_TYPE": "U", "NORAD_CAT_ID": 31040, "ELEMENT_SET_NO": 999, "REV_AT_EPOCH": 96787, "BSTAR": 0.00024558532, "MEAN_MOTION_DOT": 4.67e-06, "MEAN_MOTION_DDOT": 0}, "tle": {"line1": "1 31040U 99025BEJ 25352.43479461  .00000467  00000+0  24559-3 0  9992", "line2": "2 31040  98.6582 342.1389 0062582 177.6674 339.7033 14.17678932967872"}}, "geometry": {"type": "Point", "coordinates": [-14.728773567662335, -4.498974052486489]}}, {"type": "Feature", "properties": {"norad_id": 31041, "name": "FENGYUN 1C DEB", "group": "fengyun-1c-debris", "lat": -57.719868591529504, "lon": -170.98971576429727, "alt_km": 805.8082561780993, "timestamp": "2025-12-20T22:39:10.906089+00:00", "meta": {"OBJECT_NAME": "FENGYUN 1C DEB", "OBJECT_ID": "1999-025BEK", "EPOCH": "2025-12-20T01:11:55.931424", "MEAN_MOTION": 14.17898364, "ECCENTRICITY": 0.00871545, "INCLINATION": 99.204, "RA_OF_ASC_NODE": 22.9571, "ARG_OF_PERICENTER": 299.3991, "MEAN_ANOMALY": 59.8503, "EPHEMERIS_TYPE": 0, "CLASSIFICATION_TYPE": "U", "NORAD_CAT_ID": 31041, "ELEMENT_SET_NO": 999, "REV_AT_EPOCH": 95593, "BSTAR": 0.0014183161, "MEAN_MOTION_DOT": 2.962e-05, "MEAN_MOTION_DDOT": 0}, "tle": {"line1": "1 31041U 99025BEK 25354.04995291  .00002962  00000+0  14183-2 0  9999", "line2": "2 31041  99.2040  22.9571 0087154 299.3991  59.8503 14.17898364955930"}}, "geometry": {"type": "Point", "coordinates": [-170.98971576429727, -57.719868591529504]}}, {"type": "Feature", "properties": {"norad_id": 31043, "name": "FENGYUN 1C DEB", "group": "fengyun-1c-debris", "lat": -30.21338446684843, "lon": 17.67345843975807, "alt_km": 841.4461143195485, "timestamp": "2025-12-20T22:39:10.906098+00:00", "meta": {"OBJECT_NAME": "FENGYUN 1C DEB", "OBJECT_ID": "1999-025BEM", "EPOCH": "2025-12-20T07:32:08.571840", "MEAN_MOTION": 14.08440648, "ECCENTRICITY": 0.0041045, "INCLINATION": 98.7638, "RA_OF_ASC_NODE": 11.9078, "ARG_OF_PERICENTER": 342.6131, "MEAN_ANOMALY": 34.9768, "EPHEMERIS_TYPE": 0, "CLASSIFICATION_TYPE": "U", "NORAD_CAT_ID": 31043, "ELEMENT_SET_NO": 999, "REV_AT_EPOCH": 96094, "BSTAR": 0.00030738724, "MEAN_MOTION_DOT": 4.88e-06, "MEAN_MOTION_DDOT": 0}, "tle": {"line1": "1 31043U 99025BEM 25354.31398810  .00000488  00000+0  30739-3 0  9992", "line2": "2 31043  98.7638  11.9078 0041045 342.6131  34.9768 14.08440648960948"}}, "geometry": {"type": "Point", "coordinates": [17.67345843975807, -30.21338446684843]}}, {"type": "Feature", "properties": {"norad_id": 31046, "name": "FENGYUN 1C DEB", "group": "fengyun-1c-debris", "lat": -14.756045794720915, "lon": 117.73657649202201, "alt_km": 685.7486148679964, "timestamp": "2025-12-20T22:39:10.906107+00:00", "meta": {"OBJECT_NAME": "FENGYUN 1C DEB", "OBJECT_ID": "1999-025BEQ", "EPOCH": "2025-12-20T06:35:25.489248", "MEAN_MOTION": 14.64068194, "ECCENTRICITY": 0.00453608, "INCLINATION": 98.9679, "RA_OF_ASC_NODE": 114.6247, "ARG_OF_PERICENTER": 79.3941, "MEAN_ANOMALY": 340.8209, "EPHEMERIS_TYPE": 0, "CLASSIFICATION_TYPE": "U", "NORAD_CAT_ID": 31046, "ELEMENT_SET_NO": 999, "REV_AT_EPOCH": 96753, "BSTAR": 0.0023309047, "MEAN_MOTION_DOT": 0.00012381, "MEAN_MOTION_DDOT": 0}, "tle": {"line1": "1 31046U 99025BEQ 25354.27460057  .00012381  00000+0  23309-2 0  9992", "line2": "2 31046  98.9679 114.6247 0045360  79.3941 340.8209 14.64068194967539"}}, "geometry": {"type": "Point", "coordinates": [117.73657649202201, -14.756045794720915]}}, {"type": "Feature", "properties": {"norad_id": 31047, "name": "FENGYUN 1C DEB", "group": "fengyun-1c-debris", "lat": 76.54562372915531, "lon": -148.04403024954456, "alt_km": 827.9459814653401, "timestamp": "2025-12-20T22:39:10.906116+00:00", "meta": {"OBJECT_NAME": "FENGYUN 1C DEB", "OBJECT_ID": "1999-025BER", "EPOCH": "2025-12-19T11:14:12.414336", "MEAN_MOTION": 14.13852673, "ECCENTRICITY": 0.0026001, "INCLINATION": 98.7009, "RA_OF_ASC_NODE": 350.7209, "ARG_OF_PERICENTER": 158.7021, "MEAN_ANOMALY": 355.0187, "EPHEMERIS_TYPE": 0, "CLASSIFICATION_TYPE": "U", "NORAD_CAT_ID": 31047, "ELEMENT_SET_NO": 999, "REV_AT_EPOCH": 96454, "BSTAR": 0.00031685, "MEAN_MOTION_DOT": 5.59e-06, "MEAN_MOTION_DDOT": 0}, "tle": {"line1": "1 31047U 99025BER 25353.46819924  .00000559  00000+0  31685-3 0  9995", "line2": "2 31047  98.7009 350.7209 0026001 158.7021 355.0187 14.13852673964546"}}, "geometry": {"type": "Point", "coordinates": [-148.04403024954456, 76.54562372915531]}}, {"type": "Feature", "properties": {"norad_id": 31051, "name": "FENGYUN 1C DEB", "group": "fengyun-1c-debris", "lat": -62.471970301764, "lon": -172.0849947097679, "alt_km": 915.8783166678495, "timestamp": "2025-12-20T22:39:10.906126+00:00", "meta": {"OBJECT_NAME": "FENGYUN 1C DEB", "OBJECT_ID": "1999-025BEV", "EPOCH": "2025-12-12T21:48:30.367584", "MEAN_MOTION": 14.03033745, "ECCENTRICITY": 0.00534524, "INCLINATION": 98.8183, "RA_OF_ASC_NODE": 17.4591, "ARG_OF_PERICENTER": 135.0078, "MEAN_ANOMALY": 225.5438, "EPHEMERIS_TYPE": 0, "CLASSIFICATION_TYPE": "U", "NORAD_CAT_ID": 31051, "ELEMENT_SET_NO": 999, "REV_AT_EPOCH": 63821, "BSTAR": 0.00016986752, "MEAN_MOTION_DOT": 2.25e-06, "MEAN_MOTION_DDOT": 0}, "tle": {"line1": "1 31051U 99025BEV 25346.90868481  .00000225  00000+0  16987-3 0  9991", "line2": "2 31051  98.8183  17.4591 0053452 135.0078 225.5438 14.03033745638218"}}, "geometry": {"type": "Point", "coordinates": [-172.0849947097679, -62.471970301764]}}, {"type": "Feature", "properties": {"norad_id": 31053, "name": "FENGYUN 1C DEB", "group": "fengyun-1c-debris", "lat": 32.67640718254827, "lon": 111.13617998388092, "alt_km": 799.166333922778, "timestamp": "2025-12-20T22:39:10.906135+00:00", "meta": {"OBJECT_NAME": "FENGYUN 1C DEB", "OBJECT_ID": "1999-025BEX", "EPOCH": "2025-12-20T06:47:27.276576", "MEAN_MOTION": 13.75895764, "ECCENTRICITY": 0.03089081, "INCLINATION": 98.7942, "RA_OF_ASC_NODE": 116.2232, "ARG_OF_PERICENTER": 74.852, "MEAN_ANOMALY": 288.6576, "EPHEMERIS_TYPE": 0, "CLASSIFICATION_TYPE": "U", "NORAD_CAT_ID": 31053, "ELEMENT_SET_NO": 999, "REV_AT_EPOCH": 93580, "BSTAR": 0.00094240194, "MEAN_MOTION_DOT": 1.258e-05, "MEAN_MOTION_DDOT": 0}, "tle": {"line1": "1 31053U 99025BEX 25354.28295459  .00001258  00000+0  94240-3 0  9997", "line2": "2 31053  98.7942 116.2232 0308908  74.8520 288.6576 13.75895764935806"}}, "geometry": {"type": "Point", "coordinates": [111.13617998388092, 32.67640718254827]}}, {"type": "Feature", "properties": {"norad_id": 31054, "name": "FENGYUN 1C DEB", "group": "fengyun-1c-debris", "lat": 11.781748022840468, "lon": -170.44910069501694, "alt_km": 850.371670469418, "timestamp": "2025-12-20T22:39:10.906144+00:00", "meta": {"OBJECT_NAME": "FENGYUN 1C DEB", "OBJECT_ID": "1999-025BEY", "EPOCH": "2025-12-20T12:23:00.951936", "MEAN_MOTION": 14.12174364, "ECCENTRICITY": 0.00107911, "INCLINATION": 98.6897, "RA_OF_ASC_NODE": 7.3082, "ARG_OF_PERICENTER": 100.2977, "MEAN_ANOMALY": 53.437, "EPHEMERIS_TYPE": 0, "CLASSIFICATION_TYPE": "U", "NORAD_CAT_ID": 31054, "ELEMENT_SET_NO": 999, "REV_AT_EPOCH": 96873, "BSTAR": 0.0001290891, "MEAN_MOTION_DOT": 1.95e-06, "MEAN_MOTION_DDOT": 0}, "tle": {"line1": "1 31054U 99025BEY 25354.51598324  .00000195  00000+0  12909-3 0  9992", "line2": "2 31054  98.6897   7.3082 0010791 100.2977  53.4370 14.12174364968734"}}, "geometry": {"type": "Point", "coordinates": [-170.44910069501694, 11.781748022840468]}}, {"type": "Feature", "properties": {"norad_id": 31055, "name": "FENGYUN 1C DEB", "group": "fengyun-1c-debris", "lat": -56.892126687524716, "lon": -167.73394177361442, "alt_km": 847.8618353037709, "timestamp": "2025-12-20T22:39:10.906153+00:00", "meta": {"OBJECT_NAME": "FENGYUN 1C DEB", "OBJECT_ID": "1999-025BEZ", "EPOCH": "2025-12-20T01:21:05.010336", "MEAN_MOTION": 14.10385129, "ECCENTRICITY": 0.00241768, "INCLINATION": 98.7589, "RA_OF_ASC_NODE": 25.0773, "ARG_OF_PERICENTER": 250.5073, "MEAN_ANOMALY": 163.4034, "EPHEMERIS_TYPE": 0, "CLASSIFICATION_TYPE": "U", "NORAD_CAT_ID": 31055, "ELEMENT_SET_NO": 999, "REV_AT_EPOCH": 96225, "BSTAR": 0.00024178399, "MEAN_MOTION_DOT": 3.87e-06, "MEAN_MOTION_DDOT": 0}, "tle": {"line1": "1 31055U 99025BEZ 25354.05630799  .00000387  00000+0  24178-3 0  9999", "line2": "2 31055  98.7589  25.0773 0024176 250.5073 163.4034 14.10385129962257"}}, "geometry": {"type": "Point", "coordinates": [-167.73394177361442, -56.892126687524716]}}]}